SONATE-2
1 59112U 24043Q   26122.89435363  .00040085  00000+0  58511-3 0  9994
2 59112  97.5488 270.6447 0006427  13.6039 346.5387 15.55545029120844
GRBBeta
1 60237U 24128C   26122.95117814  .00004351  00000+0  30239-3 0  9996
2 60237  61.9920  14.9319 0046354 125.1915 235.3533 15.06272518 99458
Curium One
1 60242U 24128H   26122.93942535  .00009078  00000+0  52826-3 0  9993
2 60242  61.9802   5.9449 0045933 121.8081 238.7500 15.11787322 99615
ROBUSTA-3A
1 60243U 24128J   26122.94559121  .00008801  00000+0  52366-3 0  9992
2 60243  61.9883   8.1476 0047009 119.2509 241.3298 15.10972610 99587
CatSat
1 60246U 24125J   26122.93311866  .00055623  00000+0  84830-3 0  9998
2 60246  97.2129 335.0067 0022682 353.7248   6.3718 15.53989235100350
ARTIC WX
1 60543U 24149CD  26122.95184083  .00000941  00000+0  10376-3 0  9992
2 60543  97.6813 194.7062 0000782 228.3335 131.7816 14.89780398 92562
ARCTICSAT 1
1 61762U 24199AD  26122.59546329  .00201796  00000+0  10410-2 0  9995
2 61762  97.2950   3.4762 0005309  92.7415 267.4461 15.80570735130862
HYPERVIEW-1G (RS66S)
1 61772U 24199AP  26122.95166633  .00097786  00000+0  93651-3 0  9993
2 61772  97.2965   0.7291 0008851  89.4531 270.7744 15.66315161127572
AO-123
1 61781U 24199AY  26122.93361728  .00008398  00000+0  24862-3 0  9992
2 61781  97.3060 352.0206 0015825 109.3349 250.9608 15.35011131126985
SAMSAT-IONOSPHERE
1 61784U 24199BB  26122.90299321  .00042142  00000+0  65204-3 0  9991
2 61784  97.3015 357.8444 0011439  92.0252 268.2312 15.53880075130523
LASARsat
1 62391U 24247Q   26122.39064147  .00031068  00000+0  68054-3 0  9990
2 62391  44.9719 158.9894 0004991  33.9249 326.1958 15.43602131 76232
CROCUBE
1 62394U 24247T   26122.11532374  .00032949  00000+0  68548-3 0  9992
2 62394  44.9705 158.5357 0004635  32.7877 327.3300 15.45098537 76212
JINJUSat 1B
1 63210U 25052A   26122.96959685  .00017115  00000+0  55388-3 0  9992
2 63210  97.4057  19.7033 0001676 211.6139 148.5002 15.32113273 63177
NUSHSAT 1
1 63211U 25052B   26122.68930391  .00020655  00000+0  62484-3 0  9993
2 63211  97.4033  19.8450 0001300 212.2743 147.8420 15.34226797 63161
TEVEL2-4
1 63213U 25052D   26122.97056161  .00018732  00000+0  58840-3 0  9995
2 63213  97.3953  19.3323 0000327 236.0831 124.0380 15.33050523 63182
TEVEL2-5
1 63214U 25052E   26122.98632585  .00019555  00000+0  61698-3 0  9996
2 63214  97.3951  19.3081 0000359 249.3670 110.7534 15.32899377 63185
TEVEL2-6
1 63215U 25052F   26122.67115982  .00019348  00000+0  61143-3 0  9995
2 63215  97.3955  18.9783 0000459 264.1416  95.9774 15.32850067 63136
TEVEL2-1
1 63217U 25052H   26122.94646068  .00018362  00000+0  58906-3 0  9999
2 63217  97.3929  18.9291 0000718 328.9460  31.1740 15.32379689 63163
TEVEL2-3
1 63218U 25052J   26122.68139395  .00018006  00000+0  57704-3 0  9991
2 63218  97.3936  18.6805 0000735 328.3838  31.7360 15.32416146 63122
TEVEL2-2
1 63219U 25052K   26122.68577785  .00017801  00000+0  57126-3 0  9991
2 63219  97.3929  18.6703 0000806 329.9197  30.1999 15.32374939 63120
TEVEL2-9
1 63237U 25052AD  26122.67177041  .00017004  00000+0  57794-3 0  9997
2 63237  97.3991  18.1252 0004535 317.8013  42.2878 15.30521893 63063
TEVEL2-7
1 63238U 25052AE  26122.96605087  .00016877  00000+0  57809-3 0  9990
2 63238  97.3996  18.3525 0004599 316.8658  43.2221 15.30272258 63104
TEVEL2-8
1 63239U 25052AF  26122.64683984  .00016873  00000+0  57850-3 0  9990
2 63239  97.3994  18.0131 0004640 319.1454  40.9439 15.30241940 63053
HADES-ICM (SO-125)
1 63492U 25052BN  26122.70450804  .00486536  00000+0  22111-2 0  9999
2 63492  97.3811  25.9601 0005420 156.8037 203.3477 15.82611773 63601
PARUS-T2
1 64574U 25135AY  26122.93430231  .00004476  00000+0  41086-3 0  9992
2 64574  97.7694 238.2707 0003609 114.2020 245.9578 14.95348463 47162
Geoscan-1
1 64880U 25155E   26122.93381175  .00013495  00000+0  46944-3 0  9995
2 64880  97.4531  91.4621 0007112 355.0959   5.0210 15.29808913 73854
Geoscan-2
1 64890U 25155Q   26122.93565967  .00013049  00000+0  45013-3 0  9990
2 64890  97.4530  91.5981 0005941 342.2257  17.8775 15.30096458 73864
Geoscan-4
1 64892U 25155S   26122.95052856  .00016155  00000+0  52183-3 0  9999
2 64892  97.4530  92.0546 0005836   7.3618 352.7708 15.32173496 73892
Geoscan-3
1 64893U 25155T   26122.94013433  .00020962  00000+0  64098-3 0  9996
2 64893  97.4519  92.3537 0005553  10.7807 349.3554 15.33871217 73918
SPIRONE
1 66657U 25274H   26122.22548051  .00003096  00000+0  30016-3 0  9990
2 66657  97.7479  52.1840 0012608 159.5664 200.6062 14.93357708 23365
K-HERO
1 66660U 25274L   26122.77895805  .00001697  00000+0  16519-3 0  9993
2 66660  97.7484  52.8565 0014278 163.7050 196.4632 14.93789656 23453
SNUGLITE-III DURI
1 66661U 25274M   26122.70125972  .00001894  00000+0  18337-3 0  9997
2 66661  97.7479  52.7986 0014874 165.0279 195.1384 14.93848040 23446
GALAPAGOS
1 67279U 25313AH  26122.66080530  .00007561  00000+0  33106-3 0  9990
2 67279  97.3935 198.0060 0015058 158.4778 201.7094 15.22210499 19022
Lobachevsky
1 67282U 25313AL  26122.94113110  .00006297  00000+0  27369-3 0  9995
2 67282  97.3942 198.3820 0011607 151.6879 208.4990 15.22571321 19072
SAKHACUBE-CHOLBON
1 67290U 25313AU  26122.67205381  .00010531  00000+0  43621-3 0  9991
2 67290  97.3946 198.3029 0010469 149.4730 210.7119 15.24049149 19048
RS95S (QMR-KWT-2)
1 67291U 25313AV  26122.69652157  .00015220  00000+0  60956-3 0  9991
2 67291  97.3944 198.4206 0010240 149.0432 211.1412 15.25093461 19056
KNACKSAT-2
1 67683U 98067XZ  26122.80756444  .00037310  00000+0  52540-3 0  9993
2 67683  51.6275 162.0389 0012718  29.5787 330.5921 15.56178419 13200
Ten-Koh2
1 68261U 25241B   26122.42936282  .00007053  00000+0  30672-3 0  9991
2 68261  51.6491 177.3269 0005886 357.7603   2.3348 15.23311591  7934
JACK-002
1 68417U 26067B   26122.84243604  .00007904  00000+0  38271-3 0  9994
2 68417  97.4543  82.0240 0004053  84.0032 276.1664 15.18824791  5064
DISCO 2
1 68431U 26067R   26122.85235636  .00008649  00000+0  42345-3 0  9991
2 68431  97.4579  82.0273 0003780 124.2104 235.9488 15.18408351  5065
HADES-SA (SpinnyONE)
1 68446U 26067AG  26122.81202101  .00019223  00000+0  95863-3 0  9997
2 68446  97.4392  81.8517 0005417 214.6385 145.4497 15.17561269  5046
PARUS-6U1
1 68456U 26067AS  26122.81482571  .00006270  00000+0  32020-3 0  9993
2 68456  97.4531  81.9034 0004621 202.8938 157.2090 15.17043307  5055
SAL-E
1 68458U 26067AU  26122.81477421  .00008867  00000+0  45032-3 0  9994
2 68458  97.4457  81.8733 0004505 214.0000 146.0945 15.17115055  5050
FSI-SAT 2
1 68792U 26088A   26115.68414791  .00000849  00000+0  61705-4 0  9994
2 68792  97.4990 266.2992 0012809 287.5176  72.4651 15.06389719   389
OrigamiSat 2
1 68795U 26088D   26113.82356135  .00001590  00000+0  10758-3 0  9993
2 68795  97.5008 264.4888 0014430 266.4157  93.5420 15.07861282   103
ARICA 2
1 68796U 26088E   26113.82352201  .00001593  00000+0  10752-3 0  9991
2 68796  97.4989 264.4863 0014541 264.6248  95.3321 15.07951070   103
WASEDA-SAT-ZERO-II
1 68797U 26088F   26113.82350997  .00001596  00000+0  10767-3 0  9991
2 68797  97.5012 264.4822 0014814 262.4592  97.4954 15.07975758   102
MANGARO-II-Piscus
1 68798U 26088G   26113.82334568  .00001591  00000+0  10611-3 0  9991
2 68798  97.4999 264.4888 0017891 266.9056  93.0125 15.08353756   101
Delfi-N3xt
1 39428U 13066N   26122.25765441  .00011189  00000-0  98338-3 0  9993
2 39428  97.8354  42.6290 0075350   1.1801 358.9583 14.94527879667767
HYDRA-W
1 63490U 25052BL  26113.93882235  .05662091  24406-5  29537-2 0  9997
2 63490  97.3690  18.2798 0008685 203.5899 156.4993 16.20186780 62336
SilverSat
1 66909U 98067XV  26113.44966717  .07226154  12288-4  11979-2 0  9998
2 66909  51.6027 190.0749 0007952 333.4666  26.5949 16.32457272 22308
IO-86
1 40931U          25360.30710720  .00000000  00000-0  12800-3 0    00
2 40931   6.0006 332.5373 0012733 338.8432   8.1437 14.79075515    01
LILIUM-4
1 71922C 26067AC  26089.50133053 -.00014632  00000 0 -74472-3 0    04
2 71922  97.4497  49.1617 0004341   5.9603 355.7042 15.16896692    16
PARUS-T1
1 98707U 25009N   25063.20000000  .00000000  00000-0  00000-0 0    08
2 98707  97.4430 144.9801 0003811 149.1702 136.3402 15.16239457    06
T.MicroSat-1
1 98515U 25276Y   25347.12519372 +.00009703 +00000+0 +47621-3 0 00218
2 98515  97.4377  58.8963 0002080  99.7173 260.4296 15.18293117002180
ARICA-2
1 98329U 27001A   26113.71443610  .00000000  00000-0  29916-3 0    03
2 98329  97.5133 264.2063 0010953 206.3608 281.8662 15.08387874    01
CORIOLIS
1 27640U 03001A   26122.95847257  .00000109  00000+0  72009-4 0  9994
2 27640  98.7140 130.5320 0013698 348.1687  11.9166 14.19932142207805
